*******************************************************************************
JPL/HORIZONS            4432 McGraw-Hill (1981 ER22)       2023-Sep-04 11:29:12
Rec #:    4432 (+COV) Soln.date: 2023-Aug-23_18:35:24   # obs: 2156 (1964-2023)
 
IAU76/J2000 helio. ecliptic osc. elements (au, days, deg., period=Julian yrs):
 
  EPOCH=  2457353.5 ! 2015-Nov-27.00 (TDB)         Residual RMS= .26419
   EC= .2148408978256601   QR= 1.873220034874782   TP= 2457496.8677917514
   OM= 115.1073760167027   W=  246.4006537173554   IN= .4614964427588474
   A= 2.385784014586696    MA= 321.6549787005038   ADIST= 2.898347994298609
   PER= 3.68515            N= .267459105           ANGMOM= .025949891
   DAN= 2.48981            DDN= 2.09544            L= 1.5073479
   B= -.4228995            MOID= .87037599         TP= 2016-Apr-18.3677917514
 
Asteroid physical parameters (km, seconds, rotational period in hours):
   GM= n.a.                RAD= 1.521              ROTPER= n.a.
   H= 14.71                G= .150                 B-V= n.a.
                           ALBEDO= .254            STYP= n.a.

ASTEROID comments: 
1: soln ref.= JPL#41, OCC=0
2: source=ORB
*******************************************************************************


*******************************************************************************
Ephemeris / API_USER Mon Sep  4 11:29:13 2023 Pasadena, USA      / Horizons
*******************************************************************************
Target body name: 4432 McGraw-Hill (1981 ER22)    {source: JPL#41}
Center body name: Solar System Barycenter (0)     {source: DE441}
Center-site name: BODY CENTER
*******************************************************************************
Start time      : A.D. 2023-Aug-12 00:00:00.0000 TDB
Stop  time      : A.D. 2023-Aug-13 00:00:00.0000 TDB
Step-size       : 2880 minutes
*******************************************************************************
Center geodetic : 0.0, 0.0, 0.0                   {E-lon(deg),Lat(deg),Alt(km)}
Center cylindric: 0.0, 0.0, 0.0                   {E-lon(deg),Dxy(km),Dz(km)}
Center radii    : (undefined)
Small perturbers: Yes                             {source: SB441-N16}
Output units    : KM-S
Calendar mode   : Mixed Julian/Gregorian
Output type     : GEOMETRIC cartesian states
Output format   : 2 (position and velocity)
Reference frame : Ecliptic of J2000.0
*******************************************************************************
Initial IAU76/J2000 heliocentric ecliptic osculating elements (au, days, deg.):
  EPOCH=  2457353.5 ! 2015-Nov-27.00 (TDB)         Residual RMS= .26419        
   EC= .2148408978256601   QR= 1.873220034874782   TP= 2457496.8677917514      
   OM= 115.1073760167027   W=  246.4006537173554   IN= .4614964427588474       
  Equivalent ICRF heliocentric cartesian coordinates (au, au/d):
   X= 1.146852816894872E+00  Y=-1.545618788809290E+00  Z=-6.729451813074718E-01
  VX= 9.363361047848177E-03 VY= 8.170951483829276E-03 VZ= 3.435088137450504E-03
Asteroid physical parameters (km, seconds, rotational period in hours):        
   GM= n.a.                RAD= 1.521              ROTPER= n.a.                
   H= 14.71                G= .150                 B-V= n.a.                   
                           ALBEDO= .254            STYP= n.a.                  
*******************************************************************************
JDTDB
   X     Y     Z
   VX    VY    VZ
*******************************************************************************
$$SOE
2460168.500000000 = A.D. 2023-Aug-12 00:00:00.0000 TDB 
 X = 2.774775552019476E+08 Y =-3.777246359774782E+07 Z =-1.869152012118967E+06
 VX= 2.513169807515770E+00 VY= 2.376734113616130E+01 VZ=-1.000911126118602E-01
$$EOE
*******************************************************************************
 
TIME

  Barycentric Dynamical Time ("TDB" or T_eph) output was requested. This
continuous coordinate time is equivalent to the relativistic proper time
of a clock at rest in a reference frame co-moving with the solar system
barycenter but outside the system's gravity well. It is the independent
variable in the solar system relativistic equations of motion.

  TDB runs at a uniform rate of one SI second per second and is independent
of irregularities in Earth's rotation.
 
CALENDAR SYSTEM

  Mixed calendar mode was active such that calendar dates after AD 1582-Oct-15
(if any) are in the modern Gregorian system. Dates prior to 1582-Oct-5 (if any)
are in the Julian calendar system, which is automatically extended for dates
prior to its adoption on 45-Jan-1 BC.  The Julian calendar is useful for
matching historical dates. The Gregorian calendar more accurately corresponds
to the Earth's orbital motion and seasons. A "Gregorian-only" calendar mode is
available if such physical events are the primary interest.

REFERENCE FRAME AND COORDINATES

  Ecliptic at the standard reference epoch

    Reference epoch: J2000.0
    X-Y plane: adopted Earth orbital plane at the reference epoch
               Note: IAU76 obliquity of 84381.448 arcseconds wrt ICRF X-Y plane
    X-axis   : ICRF
    Z-axis   : perpendicular to the X-Y plane in the directional (+ or -) sense
               of Earth's north pole at the reference epoch.

  Symbol meaning:

    JDTDB    Julian Day Number, Barycentric Dynamical Time
      X      X-component of position vector (km)
      Y      Y-component of position vector (km)
      Z      Z-component of position vector (km)
      VX     X-component of velocity vector (km/sec)                           
      VY     Y-component of velocity vector (km/sec)                           
      VZ     Z-component of velocity vector (km/sec)                           

ABERRATIONS AND CORRECTIONS

 Geometric state vectors have NO corrections or aberrations applied.

Computations by ...

    Solar System Dynamics Group, Horizons On-Line Ephemeris System
    4800 Oak Grove Drive, Jet Propulsion Laboratory
    Pasadena, CA  91109   USA

    General site: https://ssd.jpl.nasa.gov/
    Mailing list: https://ssd.jpl.nasa.gov/email_list.html
    System news : https://ssd.jpl.nasa.gov/horizons/news.html
    User Guide  : https://ssd.jpl.nasa.gov/horizons/manual.html
    Connect     : browser        https://ssd.jpl.nasa.gov/horizons/app.html#/x
                  API            https://ssd-api.jpl.nasa.gov/doc/horizons.html
                  command-line   telnet ssd.jpl.nasa.gov 6775
                  e-mail/batch   https://ssd.jpl.nasa.gov/ftp/ssd/hrzn_batch.txt
                  scripts        https://ssd.jpl.nasa.gov/ftp/ssd/SCRIPTS
    Author      : Jon.D.Giorgini@jpl.nasa.gov
*******************************************************************************
